0 COSMOS 332
1 04369U 70028A   13282.51071596  .00000154  00000-0  46047-4 0  2526
2 04369 074.0385 349.2133 0007196 291.4756 173.8154 14.50818621296140
0 COSMOS 332
1 04369U 70028A   13283.75833296  .00000154  00000-0  46097-4 0  2532
2 04369 074.0384 346.8677 0007217 289.3561 209.5135 14.50818911296327
0 COSMOS 332
1 04369U 70028A   13286.29566753  .00000173  00000-0  50980-4 0  2554
2 04369 074.0379 342.0975 0007241 284.8716 140.9624 14.50819582296695
0 COSMOS 332
1 04369U 70028A   13287.32718110  .00000195  00000-0  56587-4 0  2569
2 04369 074.0376 340.1581 0007249 282.9964 128.1855 14.50820046296844
0 COSMOS 332
1 04369U 70028A   13288.50951646  .00000279  00000-0  77838-4 0  2579
2 04369 074.0373 337.9352 0007249 280.9213 183.0242 14.50821162297016
0 COSMOS 332
1 04369U 70028A   13289.62498815  .00000224  00000-0  63862-4 0  2580
2 04369 074.0371 335.8378 0007253 278.9026 248.7262 14.50821911297173
0 COSMOS 332
1 04369U 70028A   13291.18912921  .00000174  00000-0  51269-4 0  2596
2 04369 074.0369 332.8966 0007241 276.0938 137.6471 14.50822713297403
0 COSMOS 332
1 04369U 70028A   13292.50921681  .00000203  00000-0  58640-4 0  2601
2 04369 074.0368 330.4144 0007248 273.7309 191.9666 14.50823136297596
0 COSMOS 332
1 04369U 70028A   13293.68799183  .00000238  00000-0  67301-4 0  2614
2 04369 074.0368 328.1979 0007247 271.6197 228.2670 14.50823651297767
0 COSMOS 332
1 04369U 70028A   13294.78726140  .00000257  00000-0  72207-4 0  2622
2 04369 074.0368 326.1310 0007238 269.6219 209.3712 14.50824317297921
0 COSMOS 332
1 04369U 70028A   13296.08618395  .00000228  00000-0  64771-4 0  2635
2 04369 074.0368 323.6887 0007226 267.3507 153.1053 14.50824985298111
